[{"OBJECT_NAME":"STARLINK-6156","OBJECT_ID":"2023-061A","EPOCH":"2026-03-09T22:00:01.999584","MEAN_MOTION":15.1289423,"ECCENTRICITY":0.00016724,"INCLINATION":42.9997,"RA_OF_ASC_NODE":196.0642,"ARG_OF_PERICENTER":260.4198,"MEAN_ANOMALY":359.8714,"EPHEMERIS_TYPE":0,"CLASSIFICATION_TYPE":"U","NORAD_CAT_ID":56374,"ELEMENT_SET_NO":999,"REV_AT_EPOCH":557,"BSTAR":0.004197719,"MEAN_MOTION_DOT":0.0007578,"MEAN_MOTION_DDOT":0},{"OBJECT_NAME":"TIROS 8 DEB","OBJECT_ID":"1963-054E","EPOCH":"2026-03-09T05:22:09.369120","MEAN_MOTION":15.13815533,"ECCENTRICITY":0.00070645,"INCLINATION":58.4668,"RA_OF_ASC_NODE":307.6042,"ARG_OF_PERICENTER":279.6735,"MEAN_ANOMALY":80.3526,"EPHEMERIS_TYPE":0,"CLASSIFICATION_TYPE":"U","NORAD_CAT_ID":19396,"ELEMENT_SET_NO":999,"REV_AT_EPOCH":1931,"BSTAR":0.00045651397,"MEAN_MOTION_DOT":8.056e-5,"MEAN_MOTION_DDOT":0}]
